NORAD_CAT_ID,OBJECT_NAME,OBJECT_TYPE,EPOCH,MEAN_MOTION,ECCENTRICITY,INCLINATION,RA_OF_ASC_NODE,ARG_OF_PERICENTER,MEAN_ANOMALY,BSTAR,MEAN_MOTION_DOT,MEAN_MOTION_DDOT,TLE_LINE0,TLE_LINE1,TLE_LINE2,SEMIMAJOR_AXIS,PERIOD,APOGEE,PERIGEE,DECAYED
54087.0,STARLINK-5184,PAYLOAD,2023-03-11 20:43:17,15.08848208,0.0001427,53.2161,204.4782,105.1105,255.0045,0.00079789,0.00012436,0.0,0 STARLINK-5184,1 54087U 22136AN  23070.86340107  .00012436  00000-0  79789-3 0  9998,2 54087  53.2161 204.4782 0001427 105.1105 255.0045 15.08848208 21859,6917.855,95.437,540.707,538.733,0.0
54087.0,STARLINK-5184,PAYLOAD,2023-03-12 09:26:23,15.08826138,0.000128,53.2179,202.1032,68.459,291.6538,3.0828e-05,2.03e-06,0.0,0 STARLINK-5184,1 54087U 22136AN  23071.39333023  .00000203  00000-0  30828-4 0  9997,2 54087  53.2179 202.1032 0001280  68.4590 291.6538 15.08826138 22400,6917.923,95.438,540.673,538.902,0.0
54087.0,STARLINK-5184,PAYLOAD,2023-03-12 14:12:33,15.0883836,0.0001338,53.2167,201.2099,79.5924,280.5219,0.00030073,4.501e-05,0.0,0 STARLINK-5184,1 54087U 22136AN  23071.59204894  .00004501  00000-0  30073-3 0  9998,2 54087  53.2167 201.2099 0001338  79.5924 280.5219 15.08838360 21961,6917.885,95.438,540.676,538.825,0.0
54087.0,STARLINK-5184,PAYLOAD,2023-03-14 12:18:43,15.08847537,0.0001372,53.2159,192.587,87.9395,272.1755,0.00026817,3.983e-05,0.0,0 STARLINK-5184,1 54087U 22136AN  23073.51300520  .00003983  00000-0  26817-3 0  9999,2 54087  53.2159 192.5870 0001372  87.9395 272.1755 15.08847537 22727,6917.857,95.437,540.671,538.773,0.0
54087.0,STARLINK-5184,PAYLOAD,2023-03-15 12:09:30,15.08858728,0.0001287,53.2184,188.1305,90.8948,269.2191,0.00072938,0.00011345,0.0,0 STARLINK-5184,1 54087U 22136AN  23074.50660052  .00011345  00000-0  72938-3 0  9994,2 54087  53.2184 188.1305 0001287  90.8948 269.2191 15.08858728 22401,6917.823,95.436,540.578,538.798,0.0
54087.0,STARLINK-5184,PAYLOAD,2023-03-16 00:52:35,15.08859407,0.0001367,53.2158,185.7477,77.055,283.0595,0.0004118,6.275e-05,0.0,0 STARLINK-5184,1 54087U 22136AN  23075.03651702  .00006275  00000-0  41180-3 0  9996,2 54087  53.2158 185.7477 0001367  77.0550 283.0595 15.08859407 22957,6917.821,95.436,540.632,538.74,0.0
54087.0,STARLINK-5184,PAYLOAD,2023-03-16 10:24:54,15.08821714,0.0001725,53.2156,183.9635,85.1851,274.9338,-0.00048533,-8e-05,0.0,0 STARLINK-5184,1 54087U 22136AN  23075.43396718 -.00008000  00000-0 -48533-3 0  9992,2 54087  53.2156 183.9635 0001725  85.1851 274.9338 15.08821714 23015,6917.936,95.439,540.995,538.608,0.0
54087.0,STARLINK-5184,PAYLOAD,2023-03-17 13:26:29,15.08825296,0.000149,53.2169,178.9083,87.8046,272.3117,0.00053093,8.168e-05,0.0,0 STARLINK-5184,1 54087U 22136AN  23076.56006509  .00008168  00000-0  53093-3 0  9993,2 54087  53.2169 178.9083 0001490  87.8046 272.3117 15.08825296 23188,6917.925,95.438,540.821,538.76,0.0
54087.0,STARLINK-5184,PAYLOAD,2023-03-18 13:17:15,15.08871732,0.0001924,53.2172,174.4497,85.2107,274.9105,0.0011841,0.00018624,0.0,0 STARLINK-5184,1 54087U 22136AN  23077.55365681  .00018624  00000-0  11841-2 0  9994,2 54087  53.2172 174.4497 0001924  85.2107 274.9105 15.08871732 23332,6917.783,95.436,540.979,538.317,0.0
54087.0,STARLINK-5184,PAYLOAD,2023-03-18 16:28:01,15.08887842,0.0001795,53.217,173.8547,81.4135,278.706,0.0015944,0.00025211,0.0,0 STARLINK-5184,1 54087U 22136AN  23077.68613183  .00025211  00000-0  15944-2 0  9999,2 54087  53.2170 173.8547 0001795  81.4135 278.7060 15.08887842 22884,6917.734,95.435,540.841,538.357,0.0
54087.0,STARLINK-5184,PAYLOAD,2023-03-19 06:46:29,15.08866344,0.0002123,53.217,171.1788,80.8217,279.3015,0.00092034,0.000144,0.0,0 STARLINK-5184,1 54087U 22136AN  23078.28228929  .00014400  00000-0  92034-3 0  9990,2 54087  53.2170 171.1788 0002123  80.8217 279.3015 15.08866344 23446,6917.8,95.436,541.134,538.196,0.0
54087.0,STARLINK-5184,PAYLOAD,2023-03-19 13:08:02,15.08865002,0.0001554,53.2184,169.9911,92.1776,267.9394,0.0012795,0.00020148,0.0,0 STARLINK-5184,1 54087U 22136AN  23078.54724547  .00020148  00000-0  12795-2 0  9997,2 54087  53.2184 169.9911 0001554  92.1776 267.9394 15.08865002 23013,6917.804,95.436,540.744,538.594,0.0
54087.0,STARLINK-5184,PAYLOAD,2023-03-20 06:37:16,15.08836637,0.0001231,53.2173,166.7177,103.2517,256.8613,0.00066276,0.00010275,0.0,0 STARLINK-5184,1 54087U 22136AN  23079.27588808  .00010275  00000-0  66276-3 0  9990,2 54087  53.2173 166.7177 0001231 103.2517 256.8613 15.08836637 23595,6917.891,95.438,540.607,538.904,0.0
54087.0,STARLINK-5184,PAYLOAD,2023-03-20 11:23:26,15.08843658,0.0001407,53.217,165.8266,105.7104,254.4043,0.001566,0.00024725,0.0,0 STARLINK-5184,1 54087U 22136AN  23079.47460837  .00024725  00000-0  15660-2 0  9998,2 54087  53.2170 165.8266 0001407 105.7104 254.4043 15.08843658 23159,6917.869,95.437,540.708,538.761,0.0
54087.0,STARLINK-5184,PAYLOAD,2023-03-21 04:52:40,15.08844162,0.0002011,53.2177,162.5568,119.3743,240.745,0.00074634,0.00011611,0.0,0 STARLINK-5184,1 54087U 22136AN  23080.20325058  .00011611  00000-0  74634-3 0  9993,2 54087  53.2177 162.5568 0002011 119.3743 240.7450 15.08844162 23732,6917.868,95.437,541.124,538.341,0.0
54087.0,STARLINK-5184,PAYLOAD,2023-03-21 12:49:36,15.0884307,0.0001749,53.2175,161.07,112.7176,247.4001,0.00038968,5.92e-05,0.0,0 STARLINK-5184,1 54087U 22136AN  23080.53445083  .00005920  00000-0  38968-3 0  9996,2 54087  53.2175 161.0700 0001749 112.7176 247.4001 15.08843070 23313,6917.871,95.437,540.946,538.526,0.0
54087.0,STARLINK-5184,PAYLOAD,2023-03-22 12:40:23,15.08841202,0.0001593,53.2168,156.6088,100.4951,259.6221,0.00015011,2.102e-05,0.0,0 STARLINK-5184,1 54087U 22136AN  23081.52805212  .00002102  00000-0  15011-3 0  9993,2 54087  53.2168 156.6088 0001593 100.4951 259.6221 15.08841202 23938,6917.877,95.437,540.844,538.64,0.0
54087.0,STARLINK-5184,PAYLOAD,2023-03-23 10:55:47,15.08843559,0.0001643,53.2171,152.446,89.0658,271.0523,0.00014838,2.074e-05,0.0,0 STARLINK-5184,1 54087U 22136AN  23082.45541425  .00002074  00000-0  14838-3 0  9993,2 54087  53.2171 152.4460 0001643  89.0658 271.0523 15.08843559 23606,6917.87,95.437,540.871,538.598,0.0
54087.0,STARLINK-5184,PAYLOAD,2023-03-23 22:03:29,15.08855403,0.0001511,53.2178,150.3637,90.1217,269.9948,0.00027857,4.15e-05,0.0,0 STARLINK-5184,1 54087U 22136AN  23082.91908699  .00004150  00000-0  27857-3 0  9996,2 54087  53.2178 150.3637 0001511  90.1217 269.9948 15.08855403 23679,6917.833,95.437,540.744,538.653,0.0
54087.0,STARLINK-5184,PAYLOAD,2023-03-24 04:25:01,15.08873922,0.000137,53.2169,149.1747,87.0067,273.1082,0.00088805,0.00013887,0.0,0 STARLINK-5184,1 54087U 22136AN  23083.18404361  .00013887  00000-0  88805-3 0  9990,2 54087  53.2169 149.1747 0001370  87.0067 273.1082 15.08873922 24187,6917.777,95.435,540.589,538.694,0.0
54087.0,STARLINK-5184,PAYLOAD,2023-03-24 10:46:32,15.08903998,0.0001718,53.2167,147.9846,111.8212,248.2963,0.0015322,0.00024224,0.0,0 STARLINK-5184,1 54087U 22136AN  23083.44898979  .00024224  00000-0  15322-2 0  9991,2 54087  53.2167 147.9846 0001718 111.8212 248.2963 15.08903998 24228,6917.685,95.434,540.738,538.361,0.0
54087.0,STARLINK-5184,PAYLOAD,2023-03-25 04:15:47,15.08856036,0.0001578,53.216,144.7121,105.8189,254.2977,-1.0878e-05,-4.61e-06,0.0,0 STARLINK-5184,1 54087U 22136AN  23084.17763232 -.00000461  00000-0 -10878-4 0  9997,2 54087  53.2160 144.7121 0001578 105.8189 254.2977 15.08856036 24336,6917.831,95.437,540.788,538.605,0.0
54087.0,STARLINK-5184,PAYLOAD,2023-03-25 10:37:20,15.08833894,0.0001015,53.217,143.5242,72.1218,287.9884,-0.0004892,-8.063e-05,0.0,0 STARLINK-5184,1 54087U 22136AN  23084.44259639 -.00008063  00000-0 -48920-3 0  9992,2 54087  53.2170 143.5242 0001015  72.1218 287.9884 15.08833894 24374,6917.899,95.438,540.466,539.062,0.0
54087.0,STARLINK-5184,PAYLOAD,2023-03-26 04:06:36,15.08800861,0.0001039,53.2163,140.253,85.2339,274.8772,-0.0003227,-5.414e-05,0.0,0 STARLINK-5184,1 54087U 22136AN  23085.17125861 -.00005414  00000-0 -32270-3 0  9990,2 54087  53.2163 140.2530 0001039  85.2339 274.8772 15.08800861 24486,6918.0,95.44,540.584,539.146,0.0
54087.0,STARLINK-5184,PAYLOAD,2023-03-26 10:28:09,15.08817017,0.0001159,53.2166,139.0631,95.113,264.9995,-0.00044988,-7.436e-05,0.0,0 STARLINK-5184,1 54087U 22136AN  23085.43622212 -.00007436  00000-0 -44988-3 0  9996,2 54087  53.2166 139.0631 0001159  95.1130 264.9995 15.08817017 24522,6917.951,95.439,540.617,539.014,0.0
54087.0,STARLINK-5184,PAYLOAD,2023-03-26 20:00:29,15.08813334,0.0001101,53.2169,137.2819,103.7996,256.3119,-0.00042558,-7.049e-05,0.0,0 STARLINK-5184,1 54087U 22136AN  23085.83367131 -.00007049  00000-0 -42558-3 0  9997,2 54087  53.2169 137.2819 0001101 103.7996 256.3119 15.08813334 24112,6917.962,95.439,540.589,539.065,0.0
54087.0,STARLINK-5184,PAYLOAD,2023-03-27 07:08:11,15.08823266,0.0001191,53.2167,135.1991,43.3901,316.7184,0.00029672,4.435e-05,0.0,0 STARLINK-5184,1 54087U 22136AN  23086.29735428  .00004435  00000-0  29672-3 0  9992,2 54087  53.2167 135.1991 0001191  43.3901 316.7184 15.08823266 24659,6917.932,95.439,540.62,538.973,0.0
54087.0,STARLINK-5184,PAYLOAD,2023-03-28 03:48:11,15.08844304,0.0001029,53.2163,131.3308,70.6972,289.4131,0.00053499,8.238e-05,0.0,0 STARLINK-5184,1 54087U 22136AN  23087.15847074  .00008238  00000-0  53499-3 0  9998,2 54087  53.2163 131.3308 0001029  70.6972 289.4131 15.08844304 24784,6917.867,95.437,540.444,539.02,0.0
54087.0,STARLINK-5184,PAYLOAD,2023-03-28 11:45:06,15.08872032,0.000111,53.2158,129.8437,81.1946,278.9171,0.00085849,0.00013413,0.0,0 STARLINK-5184,1 54087U 22136AN  23087.48966209  .00013413  00000-0  85849-3 0  9991,2 54087  53.2158 129.8437 0001110  81.1946 278.9171 15.08872032 24834,6917.782,95.436,540.415,538.88,0.0
54087.0,STARLINK-5184,PAYLOAD,2023-03-28 19:42:02,15.08855592,0.00018,53.216,128.3584,87.9077,272.2121,0.00028669,4.279e-05,0.0,0 STARLINK-5184,1 54087U 22136AN  23087.82086427  .00004279  00000-0  28669-3 0  9991,2 54087  53.2160 128.3584 0001800  87.9077 272.2121 15.08855592 24888,6917.833,95.437,540.943,538.453,0.0
